ITASAT                  
1 43786U 18099AE  26204.57572127  .00006444  00000+0  30659-3 0  9998
2 43786  97.4011 255.3665 0011441 217.9737 142.0692 15.19457884418437
