[
  {
    "OBJECT_NAME": "ITASAT",
    "OBJECT_ID": "2018-099AE",
    "EPOCH": "2026-07-23T13:49:02.316864",
    "MEAN_MOTION": 15.19457884,
    "ECCENTRICITY": 0.0011442,
    "INCLINATION": 97.4011,
    "RA_OF_ASC_NODE": 255.3665,
    "ARG_OF_PERICENTER": 217.9737,
    "MEAN_ANOMALY": 142.0692,
    "EPHEMERIS_TYPE": 0,
    "CLASSIFICATION_TYPE": "U",
    "NORAD_CAT_ID": 43786,
    "ELEMENT_SET_NO": 999,
    "REV_AT_EPOCH": 41843,
    "BSTAR": 0.00030659,
    "MEAN_MOTION_DOT": 0.00006444,
    "MEAN_MOTION_DDOT": 0
  }
]
